[ {"CCSDS_OMM_VERS": "2.0", "COMMENT": "GENERATED VIA SPACE-TRACK.ORG API", "CREATION_DATE": "2021-12-06T06:36:11", "ORIGINATOR": "18 SPCS", "OBJECT_NAME": "ARIANE 2 R/B", "OBJECT_ID": "1988-098B", "CENTER_NAME": "EARTH", "REF_FRAME": "TEME", "TIME_SYSTEM": "UTC", "MEAN_ELEMENT_THEORY": "SGP4", "EPOCH": "2021-12-06T02:05:37.786560", "MEAN_MOTION": "3.61726729", "ECCENTRICITY": "0.62713870", "INCLINATION": "3.9047", "RA_OF_ASC_NODE": "57.6412", "ARG_OF_PERICENTER": "91.1407", "MEAN_ANOMALY": "336.0326", "EPHEMERIS_TYPE": "0", "CLASSIFICATION_TYPE": "U", "NORAD_CAT_ID": "19622", "ELEMENT_SET_NO": "999", "REV_AT_EPOCH": "36244", "BSTAR": "0.00031613000000", "MEAN_MOTION_DOT": "0.00000808", "MEAN_MOTION_DDOT": "0.0000000000000", "SEMIMAJOR_AXIS": "17925.919", "PERIOD": "398.091", "APOAPSIS": "22789.822", "PERIAPSIS": "305.747", "OBJECT_TYPE": "ROCKET BODY", "RCS_SIZE": "LARGE", "COUNTRY_CODE": "FR", "LAUNCH_DATE": "1988-10-28", "SITE": "FRGUI", "DECAY_DATE": null, "FILE": "3233577", "GP_ID": "191174030", "TLE_LINE0": "0 ARIANE 2 R/B", "TLE_LINE1": "1 19622U 88098B   21340.08724290  .00000808  00000-0  31613-3 0  9998", "TLE_LINE2": "2 19622   3.9047  57.6412 6271387  91.1407 336.0326  3.61726729362441"}, {"CCSDS_OMM_VERS": "2.0", "COMMENT": "GENERATED VIA SPACE-TRACK.ORG API", "CREATION_DATE": "2021-12-06T06:36:11", "ORIGINATOR": "18 SPCS", "OBJECT_NAME": "IUS R/B(1)", "OBJECT_ID": "1989-021C", "CENTER_NAME": "EARTH", "REF_FRAME": "TEME", "TIME_SYSTEM": "UTC", "MEAN_ELEMENT_THEORY": "SGP4", "EPOCH": "2021-12-06T00:30:52.794432", "MEAN_MOTION": "5.58366200", "ECCENTRICITY": "0.51263990", "INCLINATION": "26.3135", "RA_OF_ASC_NODE": "297.2828", "ARG_OF_PERICENTER": "319.4842", "MEAN_ANOMALY": "11.8596", "EPHEMERIS_TYPE": "0", "CLASSIFICATION_TYPE": "U", "NORAD_CAT_ID": "19884", "ELEMENT_SET_NO": "999", "REV_AT_EPOCH": "40883", "BSTAR": "0.00109030000000", "MEAN_MOTION_DOT": "0.00199852", "MEAN_MOTION_DDOT": "0.0000002749700", "SEMIMAJOR_AXIS": "13421.130", "PERIOD": "257.895", "APOAPSIS": "13923.202", "PERIAPSIS": "162.788", "OBJECT_TYPE": "ROCKET BODY", "RCS_SIZE": "LARGE", "COUNTRY_CODE": "US", "LAUNCH_DATE": "1989-03-13", "SITE": "AFETR", "DECAY_DATE": null, "FILE": "3233590", "GP_ID": "191174631", "TLE_LINE0": "0 IUS R/B(1)", "TLE_LINE1": "1 19884U 89021C   21340.02144438  .00199852  27497-6  10903-2 0  9990", "TLE_LINE2": "2 19884  26.3135 297.2828 5126399 319.4842  11.8596  5.58366200408834"}, {"CCSDS_OMM_VERS": "2.0", "COMMENT": "GENERATED VIA SPACE-TRACK.ORG API", "CREATION_DATE": "2021-12-06T06:46:12", "ORIGINATOR": "18 SPCS", "OBJECT_NAME": "ARIANE 44LP R/B", "OBJECT_ID": "1989-062C", "CENTER_NAME": "EARTH", "REF_FRAME": "TEME", "TIME_SYSTEM": "UTC", "MEAN_ELEMENT_THEORY": "SGP4", "EPOCH": "2021-12-05T16:49:33.692160", "MEAN_MOTION": "2.45380953", "ECCENTRICITY": "0.70960510", "INCLINATION": "7.1118", "RA_OF_ASC_NODE": "134.3492", "ARG_OF_PERICENTER": "348.7306", "MEAN_ANOMALY": "1.2013", "EPHEMERIS_TYPE": "0", "CLASSIFICATION_TYPE": "U", "NORAD_CAT_ID": "20170", "ELEMENT_SET_NO": "999", "REV_AT_EPOCH": "27404", "BSTAR": "0.00019145000000", "MEAN_MOTION_DOT": "-0.00000160", "MEAN_MOTION_DDOT": "0.0000000000000", "SEMIMAJOR_AXIS": "23218.880", "PERIOD": "586.843", "APOAPSIS": "33316.981", "PERIAPSIS": "364.509", "OBJECT_TYPE": "ROCKET BODY", "RCS_SIZE": "LARGE", "COUNTRY_CODE": "FR", "LAUNCH_DATE": "1989-08-08", "SITE": "FRGUI", "DECAY_DATE": null, "FILE": "3233649", "GP_ID": "191175869", "TLE_LINE0": "0 ARIANE 44LP R/B", "TLE_LINE1": "1 20170U 89062C   21339.70108440 -.00000160  00000-0  19145-3 0  9998", "TLE_LINE2": "2 20170   7.1118 134.3492 7096051 348.7306   1.2013  2.45380953274048"}, {"CCSDS_OMM_VERS": "2.0", "COMMENT": "GENERATED VIA SPACE-TRACK.ORG API", "CREATION_DATE": "2021-12-06T02:57:56", "ORIGINATOR": "18 SPCS", "OBJECT_NAME": "HST", "OBJECT_ID": "1990-037B", "CENTER_NAME": "EARTH", "REF_FRAME": "TEME", "TIME_SYSTEM": "UTC", "MEAN_ELEMENT_THEORY": "SGP4", "EPOCH": "2021-12-05T19:23:56.652576", "MEAN_MOTION": "15.09866843", "ECCENTRICITY": "0.00029200", "INCLINATION": "28.4714", "RA_OF_ASC_NODE": "11.1123", "ARG_OF_PERICENTER": "107.6063", "MEAN_ANOMALY": "55.6940", "EPHEMERIS_TYPE": "0", "CLASSIFICATION_TYPE": "U", "NORAD_CAT_ID": "20580", "ELEMENT_SET_NO": "999", "REV_AT_EPOCH": "53691", "BSTAR": "0.00004428800000", "MEAN_MOTION_DOT": "0.00000917", "MEAN_MOTION_DDOT": "0.0000000000000", "SEMIMAJOR_AXIS": "6914.744", "PERIOD": "95.373", "APOAPSIS": "538.628", "PERIAPSIS": "534.589", "OBJECT_TYPE": "PAYLOAD", "RCS_SIZE": "LARGE", "COUNTRY_CODE": "US", "LAUNCH_DATE": "1990-04-24", "SITE": "AFETR", "DECAY_DATE": null, "FILE": "3233515", "GP_ID": "191154664", "TLE_LINE0": "0 HST", "TLE_LINE1": "1 20580U 90037B   21339.80829459  .00000917  00000-0  44288-4 0  9994", "TLE_LINE2": "2 20580  28.4714  11.1123 0002920 107.6063  55.6940 15.09866843536911"}, {"CCSDS_OMM_VERS": "2.0", "COMMENT": "GENERATED VIA SPACE-TRACK.ORG API", "CREATION_DATE": "2021-12-06T02:57:56", "ORIGINATOR": "18 SPCS", "OBJECT_NAME": "ARIANE 44L R/B", "OBJECT_ID": "1990-063C", "CENTER_NAME": "EARTH", "REF_FRAME": "TEME", "TIME_SYSTEM": "UTC", "MEAN_ELEMENT_THEORY": "SGP4", "EPOCH": "2021-12-05T13:19:18.595776", "MEAN_MOTION": "2.34510093", "ECCENTRICITY": "0.71547700", "INCLINATION": "3.9128", "RA_OF_ASC_NODE": "91.3982", "ARG_OF_PERICENTER": "102.0164", "MEAN_ANOMALY": "339.2941", "EPHEMERIS_TYPE": "0", "CLASSIFICATION_TYPE": "U", "NORAD_CAT_ID": "20717", "ELEMENT_SET_NO": "999", "REV_AT_EPOCH": "25751", "BSTAR": "0.00018207000000", "MEAN_MOTION_DOT": "0.00000001", "MEAN_MOTION_DDOT": "0.0000000000000", "SEMIMAJOR_AXIS": "23930.998", "PERIOD": "614.046", "APOAPSIS": "34674.942", "PERIAPSIS": "430.784", "OBJECT_TYPE": "ROCKET BODY", "RCS_SIZE": "LARGE", "COUNTRY_CODE": "FR", "LAUNCH_DATE": "1990-07-24", "SITE": "FRGUI", "DECAY_DATE": null, "FILE": "3233515", "GP_ID": "191153667", "TLE_LINE0": "0 ARIANE 44L R/B", "TLE_LINE1": "1 20717U 90063C   21339.55507634  .00000001  00000-0  18207-3 0  9990", "TLE_LINE2": "2 20717   3.9128  91.3982 7154770 102.0164 339.2941  2.34510093257517"}, {"CCSDS_OMM_VERS": "2.0", "COMMENT": "GENERATED VIA SPACE-TRACK.ORG API", "CREATION_DATE": "2021-12-06T02:57:56", "ORIGINATOR": "18 SPCS", "OBJECT_NAME": "DELTA 2 R/B", "OBJECT_ID": "1991-028B", "CENTER_NAME": "EARTH", "REF_FRAME": "TEME", "TIME_SYSTEM": "UTC", "MEAN_ELEMENT_THEORY": "SGP4", "EPOCH": "2021-12-05T20:51:09.001152", "MEAN_MOTION": "12.53481519", "ECCENTRICITY": "0.11425170", "INCLINATION": "23.9893", "RA_OF_ASC_NODE": "158.8078", "ARG_OF_PERICENTER": "42.3645", "MEAN_ANOMALY": "325.9589", "EPHEMERIS_TYPE": "0", "CLASSIFICATION_TYPE": "U", "NORAD_CAT_ID": "21228", "ELEMENT_SET_NO": "999", "REV_AT_EPOCH": "40255", "BSTAR": "0.00001952600000", "MEAN_MOTION_DOT": "0.00000182", "MEAN_MOTION_DDOT": "0.0000000000000", "SEMIMAJOR_AXIS": "7828.103", "PERIOD": "114.880", "APOAPSIS": "2344.342", "PERIAPSIS": "555.594", "OBJECT_TYPE": "ROCKET BODY", "RCS_SIZE": "LARGE", "COUNTRY_CODE": "US", "LAUNCH_DATE": "1991-04-13", "SITE": "AFETR", "DECAY_DATE": null, "FILE": "3233515", "GP_ID": "191153945", "TLE_LINE0": "0 DELTA 2 R/B", "TLE_LINE1": "1 21228U 91028B   21339.86885418  .00000182  00000-0  19526-4 0  9999", "TLE_LINE2": "2 21228  23.9893 158.8078 1142517  42.3645 325.9589 12.53481519402559"}, {"CCSDS_OMM_VERS": "2.0", "COMMENT": "GENERATED VIA SPACE-TRACK.ORG API", "CREATION_DATE": "2021-12-06T02:57:56", "ORIGINATOR": "18 SPCS", "OBJECT_NAME": "DELTA 2 R/B(1)", "OBJECT_ID": "1992-009B", "CENTER_NAME": "EARTH", "REF_FRAME": "TEME", "TIME_SYSTEM": "UTC", "MEAN_ELEMENT_THEORY": "SGP4", "EPOCH": "2021-12-05T14:54:12.735936", "MEAN_MOTION": "14.83506607", "ECCENTRICITY": "0.00468740", "INCLINATION": "19.9973", "RA_OF_ASC_NODE": "314.6361", "ARG_OF_PERICENTER": "77.3276", "MEAN_ANOMALY": "283.2379", "EPHEMERIS_TYPE": "0", "CLASSIFICATION_TYPE": "U", "NORAD_CAT_ID": "21891", "ELEMENT_SET_NO": "999", "REV_AT_EPOCH": "58802", "BSTAR": "0.00004666200000", "MEAN_MOTION_DOT": "0.00000806", "MEAN_MOTION_DDOT": "0.0000000000000", "SEMIMAJOR_AXIS": "6996.414", "PERIOD": "97.067", "APOAPSIS": "651.074", "PERIAPSIS": "585.484", "OBJECT_TYPE": "ROCKET BODY", "RCS_SIZE": "LARGE", "COUNTRY_CODE": "US", "LAUNCH_DATE": "1992-02-23", "SITE": "AFETR", "DECAY_DATE": null, "FILE": "3233515", "GP_ID": "191154484", "TLE_LINE0": "0 DELTA 2 R/B(1)", "TLE_LINE1": "1 21891U 92009B   21339.62098074  .00000806  00000-0  46662-4 0  9997", "TLE_LINE2": "2 21891  19.9973 314.6361 0046874  77.3276 283.2379 14.83506607588023"}, {"CCSDS_OMM_VERS": "2.0", "COMMENT": "GENERATED VIA SPACE-TRACK.ORG API", "CREATION_DATE": "2021-12-06T02:57:56", "ORIGINATOR": "18 SPCS", "OBJECT_NAME": "IUS R/B(1)", "OBJECT_ID": "1993-003C", "CENTER_NAME": "EARTH", "REF_FRAME": "TEME", "TIME_SYSTEM": "UTC", "MEAN_ELEMENT_THEORY": "SGP4", "EPOCH": "2021-12-05T04:32:29.956704", "MEAN_MOTION": "3.65691203", "ECCENTRICITY": "0.62839480", "INCLINATION": "27.0399", "RA_OF_ASC_NODE": "355.9599", "ARG_OF_PERICENTER": "247.7940", "MEAN_ANOMALY": "36.7887", "EPHEMERIS_TYPE": "0", "CLASSIFICATION_TYPE": "U", "NORAD_CAT_ID": "22315", "ELEMENT_SET_NO": "999", "REV_AT_EPOCH": "11992", "BSTAR": "0.00102890000000", "MEAN_MOTION_DOT": "0.00010757", "MEAN_MOTION_DDOT": "0.0000000000000", "SEMIMAJOR_AXIS": "17796.127", "PERIOD": "393.775", "APOAPSIS": "22600.986", "PERIAPSIS": "234.998", "OBJECT_TYPE": "ROCKET BODY", "RCS_SIZE": "LARGE", "COUNTRY_CODE": "US", "LAUNCH_DATE": "1993-01-13", "SITE": "AFETR", "DECAY_DATE": null, "FILE": "3233515", "GP_ID": "191154003", "TLE_LINE0": "0 IUS R/B(1)", "TLE_LINE1": "1 22315U 93003C   21339.18923561  .00010757  00000-0  10289-2 0  9993", "TLE_LINE2": "2 22315  27.0399 355.9599 6283948 247.7940  36.7887  3.65691203119929"}]